[{"OBJECT_NAME":"O3B FM17","OBJECT_ID":"2019-020C","EPOCH":"2026-03-05T23:25:02.750592","MEAN_MOTION":5.0011547,"ECCENTRICITY":0.00026836,"INCLINATION":0.0392,"RA_OF_ASC_NODE":340.3096,"ARG_OF_PERICENTER":359.5443,"MEAN_ANOMALY":20.13,"EPHEMERIS_TYPE":0,"CLASSIFICATION_TYPE":"U","NORAD_CAT_ID":44114,"ELEMENT_SET_NO":999,"REV_AT_EPOCH":12636,"BSTAR":0,"MEAN_MOTION_DOT":-2.6e-7,"MEAN_MOTION_DDOT":0},{"OBJECT_NAME":"O3B FM18","OBJECT_ID":"2019-020D","EPOCH":"2026-03-03T12:33:35.684352","MEAN_MOTION":5.00115242,"ECCENTRICITY":0.0002751,"INCLINATION":0.0519,"RA_OF_ASC_NODE":0.0145,"ARG_OF_PERICENTER":341.722,"MEAN_ANOMALY":18.2467,"EPHEMERIS_TYPE":0,"CLASSIFICATION_TYPE":"U","NORAD_CAT_ID":44115,"ELEMENT_SET_NO":999,"REV_AT_EPOCH":12636,"BSTAR":0,"MEAN_MOTION_DOT":-2.8e-7,"MEAN_MOTION_DDOT":0},{"OBJECT_NAME":"SES-17","OBJECT_ID":"2021-095A","EPOCH":"2026-03-06T05:04:48.732096","MEAN_MOTION":1.00270429,"ECCENTRICITY":0.00010104,"INCLINATION":0.0242,"RA_OF_ASC_NODE":64.5125,"ARG_OF_PERICENTER":283.1683,"MEAN_ANOMALY":185.3504,"EPHEMERIS_TYPE":0,"CLASSIFICATION_TYPE":"U","NORAD_CAT_ID":49332,"ELEMENT_SET_NO":999,"REV_AT_EPOCH":1682,"BSTAR":0,"MEAN_MOTION_DOT":-2.77e-6,"MEAN_MOTION_DDOT":0},{"OBJECT_NAME":"SES-22","OBJECT_ID":"2022-071A","EPOCH":"2026-03-06T04:44:20.695200","MEAN_MOTION":1.00269177,"ECCENTRICITY":0.00010599,"INCLINATION":0.0175,"RA_OF_ASC_NODE":160.9252,"ARG_OF_PERICENTER":183.894,"MEAN_ANOMALY":111.1981,"EPHEMERIS_TYPE":0,"CLASSIFICATION_TYPE":"U","NORAD_CAT_ID":52933,"ELEMENT_SET_NO":999,"REV_AT_EPOCH":648,"BSTAR":0,"MEAN_MOTION_DOT":0,"MEAN_MOTION_DDOT":0},{"OBJECT_NAME":"SES-20","OBJECT_ID":"2022-123A","EPOCH":"2026-03-05T08:02:38.801184","MEAN_MOTION":1.00271408,"ECCENTRICITY":0.0001608,"INCLINATION":0.0163,"RA_OF_ASC_NODE":109.4128,"ARG_OF_PERICENTER":314.8769,"MEAN_ANOMALY":116.3178,"EPHEMERIS_TYPE":0,"CLASSIFICATION_TYPE":"U","NORAD_CAT_ID":53960,"ELEMENT_SET_NO":999,"REV_AT_EPOCH":1249,"BSTAR":0,"MEAN_MOTION_DOT":-1.09e-6,"MEAN_MOTION_DDOT":0},{"OBJECT_NAME":"SES-21","OBJECT_ID":"2022-123B","EPOCH":"2026-03-05T19:48:48.290688","MEAN_MOTION":1.00273615,"ECCENTRICITY":0.00012404,"INCLINATION":0.0276,"RA_OF_ASC_NODE":67.6455,"ARG_OF_PERICENTER":275.9781,"MEAN_ANOMALY":346.1336,"EPHEMERIS_TYPE":0,"CLASSIFICATION_TYPE":"U","NORAD_CAT_ID":53961,"ELEMENT_SET_NO":999,"REV_AT_EPOCH":617,"BSTAR":0,"MEAN_MOTION_DOT":6.3e-7,"MEAN_MOTION_DDOT":0},{"OBJECT_NAME":"O3B MPOWER F1","OBJECT_ID":"2022-174A","EPOCH":"2026-03-06T01:48:00.104544","MEAN_MOTION":5.00103109,"ECCENTRICITY":0.00051914,"INCLINATION":0.0639,"RA_OF_ASC_NODE":350.8676,"ARG_OF_PERICENTER":10.6556,"MEAN_ANOMALY":134.0526,"EPHEMERIS_TYPE":0,"CLASSIFICATION_TYPE":"U","NORAD_CAT_ID":54755,"ELEMENT_SET_NO":999,"REV_AT_EPOCH":6020,"BSTAR":0,"MEAN_MOTION_DOT":-2.6e-7,"MEAN_MOTION_DDOT":0},{"OBJECT_NAME":"O3B MPOWER F2","OBJECT_ID":"2022-174B","EPOCH":"2026-03-03T12:48:44.541504","MEAN_MOTION":5.00690325,"ECCENTRICITY":0.00461256,"INCLINATION":0.1272,"RA_OF_ASC_NODE":326.2177,"ARG_OF_PERICENTER":76.0907,"MEAN_ANOMALY":318.0389,"EPHEMERIS_TYPE":0,"CLASSIFICATION_TYPE":"U","NORAD_CAT_ID":54756,"ELEMENT_SET_NO":999,"REV_AT_EPOCH":6015,"BSTAR":0,"MEAN_MOTION_DOT":-2.8e-7,"MEAN_MOTION_DDOT":0},{"OBJECT_NAME":"SES-18","OBJECT_ID":"2023-038A","EPOCH":"2026-03-06T04:24:38.565216","MEAN_MOTION":1.00272256,"ECCENTRICITY":0.00023379,"INCLINATION":0.0556,"RA_OF_ASC_NODE":272.4265,"ARG_OF_PERICENTER":38.9405,"MEAN_ANOMALY":175.5881,"EPHEMERIS_TYPE":0,"CLASSIFICATION_TYPE":"U","NORAD_CAT_ID":55970,"ELEMENT_SET_NO":999,"REV_AT_EPOCH":1107,"BSTAR":0,"MEAN_MOTION_DOT":-1.06e-6,"MEAN_MOTION_DDOT":0},{"OBJECT_NAME":"SES-19","OBJECT_ID":"2023-038B","EPOCH":"2026-03-06T06:28:18.227424","MEAN_MOTION":1.00273357,"ECCENTRICITY":0.00017042,"INCLINATION":0.0495,"RA_OF_ASC_NODE":290.0916,"ARG_OF_PERICENTER":54.5903,"MEAN_ANOMALY":141.4781,"EPHEMERIS_TYPE":0,"CLASSIFICATION_TYPE":"U","NORAD_CAT_ID":55971,"ELEMENT_SET_NO":999,"REV_AT_EPOCH":1105,"BSTAR":0,"MEAN_MOTION_DOT":8.3e-7,"MEAN_MOTION_DDOT":0},{"OBJECT_NAME":"O3B MPOWER F4","OBJECT_ID":"2023-059A","EPOCH":"2026-02-17T05:46:40.580544","MEAN_MOTION":5.00119607,"ECCENTRICITY":0.00064606,"INCLINATION":0.0593,"RA_OF_ASC_NODE":7.9241,"ARG_OF_PERICENTER":334.3658,"MEAN_ANOMALY":17.6828,"EPHEMERIS_TYPE":0,"CLASSIFICATION_TYPE":"U","NORAD_CAT_ID":56367,"ELEMENT_SET_NO":999,"REV_AT_EPOCH":5260,"BSTAR":0,"MEAN_MOTION_DOT":-1.5e-7,"MEAN_MOTION_DDOT":0},{"OBJECT_NAME":"O3B MPOWER F5","OBJECT_ID":"2023-175A","EPOCH":"2026-03-05T18:21:42.689952","MEAN_MOTION":5.00115717,"ECCENTRICITY":0.00041427,"INCLINATION":0.04,"RA_OF_ASC_NODE":3.1544,"ARG_OF_PERICENTER":346.3643,"MEAN_ANOMALY":10.4669,"EPHEMERIS_TYPE":0,"CLASSIFICATION_TYPE":"U","NORAD_CAT_ID":58346,"ELEMENT_SET_NO":999,"REV_AT_EPOCH":4426,"BSTAR":0,"MEAN_MOTION_DOT":-2.6e-7,"MEAN_MOTION_DDOT":0},{"OBJECT_NAME":"ASTRA 1P (SES-24)","OBJECT_ID":"2024-115A","EPOCH":"2026-03-04T08:54:38.595456","MEAN_MOTION":1.00273834,"ECCENTRICITY":0.00052742,"INCLINATION":0.0597,"RA_OF_ASC_NODE":335.5167,"ARG_OF_PERICENTER":347.3044,"MEAN_ANOMALY":352.1506,"EPHEMERIS_TYPE":0,"CLASSIFICATION_TYPE":"U","NORAD_CAT_ID":60086,"ELEMENT_SET_NO":999,"REV_AT_EPOCH":614,"BSTAR":0,"MEAN_MOTION_DOT":1.08e-6,"MEAN_MOTION_DDOT":0},{"OBJECT_NAME":"O3B MPOWER F7","OBJECT_ID":"2024-244A","EPOCH":"2026-03-06T03:09:52.304832","MEAN_MOTION":5.00115163,"ECCENTRICITY":0.00061242,"INCLINATION":0.0699,"RA_OF_ASC_NODE":4.7401,"ARG_OF_PERICENTER":339.3722,"MEAN_ANOMALY":15.863,"EPHEMERIS_TYPE":0,"CLASSIFICATION_TYPE":"U","NORAD_CAT_ID":62362,"ELEMENT_SET_NO":999,"REV_AT_EPOCH":2137,"BSTAR":0,"MEAN_MOTION_DOT":-2.6e-7,"MEAN_MOTION_DDOT":0},{"OBJECT_NAME":"O3B MPOWER F8","OBJECT_ID":"2024-244B","EPOCH":"2026-03-06T02:22:19.528896","MEAN_MOTION":5.00115759,"ECCENTRICITY":0.00066158,"INCLINATION":0.0517,"RA_OF_ASC_NODE":316.5178,"ARG_OF_PERICENTER":20.9254,"MEAN_ANOMALY":22.5222,"EPHEMERIS_TYPE":0,"CLASSIFICATION_TYPE":"U","NORAD_CAT_ID":62363,"ELEMENT_SET_NO":999,"REV_AT_EPOCH":1571,"BSTAR":0,"MEAN_MOTION_DOT":-2.6e-7,"MEAN_MOTION_DDOT":0}]
